OBJECT_NAME,OBJECT_ID,EPOCH,MEAN_MOTION,ECCENTRICITY,INCLINATION,RA_OF_ASC_NODE,ARG_OF_PERICENTER,MEAN_ANOMALY,EPHEMERIS_TYPE,CLASSIFICATION_TYPE,NORAD_CAT_ID,ELEMENT_SET_NO,REV_AT_EPOCH,BSTAR,MEAN_MOTION_DOT,MEAN_MOTION_DDOT
STARLINK-31176,2024-005T,2024-12-04T08:05:20.299200,15.02544767,.0001219,43.0044,202.9732,280.0182,80.0522,0,U,58745,999,5121,-.10322E-3,-.1598E-4,0
STARLINK-31181,2024-005U,2024-12-04T11:58:36.672384,15.25897621,.000099,43.0010,148.8726,255.6710,104.4031,0,U,58746,999,5187,.1793E-4,.212E-5,0
STARLINK-31183,2024-005V,2024-12-04T01:32:49.817472,15.02536311,.0001201,43.0025,204.3695,267.1836,92.8869,0,U,58747,999,5123,.10136E-3,.1166E-4,0
STARLINK-31165,2024-005W,2024-12-04T08:00:31.938336,15.02539586,.0001622,43.0031,202.9480,267.0547,93.0110,0,U,58748,999,5117,.13139E-3,.1572E-4,0
STARLINK-31160,2024-005X,2024-12-04T07:46:08.092992,15.02551279,.0001378,43.0036,202.8037,269.1326,90.9359,0,U,58749,999,5117,.2417E-3,.3064E-4,0
STARLINK-31179,2024-005Y,2024-12-04T07:50:58.905024,15.02545940,.0002908,42.9955,202.8963,278.1164,81.9349,0,U,58750,999,5117,.20489E-2,.27592E-3,0
EINSTEIN PROBE,2024-007A,2024-12-04T04:37:54.649632,14.97112160,.0010438,28.9975,244.0892,112.3995,247.7708,0,U,58753,999,4941,.65223E-3,.7858E-4,0
NANOFF B,2023-185S,2024-12-04T14:33:04.994784,15.06210303,.0014919,97.5990,43.7349,64.4796,295.7972,0,U,58755,999,4945,.6701E-3,.9791E-4,0
TIANXING-1 02,2024-008A,2024-12-03T17:18:34.810272,15.71596268,.0014687,95.0953,327.1113,167.7825,192.3803,0,U,58756,999,5076,.61888E-3,.80331E-3,0
YUNYAO-1 18,2024-009A,2024-12-04T14:14:57.909120,15.15230390,.0007765,49.9975,8.6839,194.5356,165.5373,0,U,58758,999,4985,.12316E-2,.23252E-3,0
YUNYAO-1 19,2024-009B,2024-12-04T13:49:34.858560,15.15118301,.0008703,49.9907,9.0800,204.2156,155.8388,0,U,58759,999,4985,.12809E-2,.24125E-3,0
YUNYAO-1 20,2024-009C,2024-12-04T13:17:11.286240,15.15116344,.0007426,49.9835,8.0785,216.0675,143.9776,0,U,58760,999,4986,.13451E-2,.25346E-3,0
STARLINK-31127,2024-011A,2024-12-04T10:04:17.773824,15.04934176,.0001743,53.1606,312.9122,109.2258,250.8921,0,U,58765,999,5035,.2506E-3,.3312E-4,0
STARLINK-31114,2024-011B,2024-12-04T07:16:02.905824,15.04938264,.000163,53.1611,312.9080,92.5892,267.5285,0,U,58766,999,5034,.59724E-3,.8285E-4,0
STARLINK-31140,2024-011C,2024-12-04T09:59:39.753312,15.04953306,.0001454,53.1606,312.8924,100.4080,259.7073,0,U,58767,999,5035,.19344E-3,.2495E-4,0
STARLINK-31145,2024-011D,2024-12-04T05:08:08.070720,15.04925243,.0001689,53.1621,313.7652,84.3210,275.7972,0,U,58768,999,5032,.14962E-3,.1865E-4,0
STARLINK-31146,2024-011E,2024-12-04T09:48:50.416704,15.04936544,.0001595,53.1608,312.8454,94.6647,265.4525,0,U,58769,999,5035,.21865E-3,.2855E-4,0
STARLINK-31143,2024-011F,2024-12-04T08:08:33.061056,15.04984294,.000142,53.1613,313.1266,90.2645,269.8508,0,U,58770,999,5034,.13411E-2,.19002E-3,0
STARLINK-31135,2024-011G,2024-12-04T09:39:33.419232,15.04951500,.0001373,53.1610,312.8059,104.4266,255.6876,0,U,58771,999,5035,-.11957E-3,-.199E-4,0
STARLINK-31136,2024-011H,2024-12-04T04:48:02.686176,15.04933209,.0001298,53.1606,313.6824,89.2091,270.9047,0,U,58772,999,5032,-.42885E-5,-.339E-5,0
STARLINK-31073,2024-011J,2024-12-04T07:54:40.159872,15.04922224,.0001591,53.1596,313.0681,88.4917,271.6255,0,U,58773,999,5034,.23309E-3,.306E-4,0
STARLINK-31122,2024-011K,2024-12-04T11:01:19.157664,15.04940724,.0001476,53.1610,312.4513,97.6963,262.4194,0,U,58774,999,5036,.54574E-3,.7546E-4,0
STARLINK-31123,2024-011L,2024-12-04T07:45:23.852736,15.04934874,.0001798,53.1628,313.0229,85.1071,275.0124,0,U,58775,999,5034,.17014E-3,.2159E-4,0
STARLINK-31117,2024-011M,2024-12-04T07:40:46.087104,15.04910077,.0001377,53.1598,313.0048,93.3034,266.8114,0,U,58776,999,5034,.43417E-3,.5941E-4,0
STARLINK-31132,2024-011N,2024-12-04T12:16:19.909056,15.30191441,.0001406,53.1603,261.0231,83.3333,276.7828,0,U,58777,999,5110,.61248E-4,.1455E-4,0
STARLINK-31120,2024-011P,2024-12-04T09:00:57.348000,15.04961972,.0001363,53.1604,312.6416,95.6166,264.4979,0,U,58778,999,5035,.85786E-3,.12036E-3,0
STARLINK-31142,2024-011Q,2024-12-04T05:55:52.049280,15.04924674,.0001638,53.1626,313.2587,82.5605,277.5570,0,U,58779,999,5033,.13308E-3,.1628E-4,0
STARLINK-31099,2024-011S,2024-12-04T05:35:47.203872,15.04921565,.0001606,53.1621,313.1729,89.4268,270.6906,0,U,58781,999,5033,.99335E-5,-.135E-5,0
STARLINK-31060,2024-011T,2024-12-04T14:00:01.000224,15.52413597,.0014089,53.1568,254.1976,125.4447,314.4814,0,U,58782,999,589,.18959E-2,.119551E-2,0
STARLINK-31047,2024-011U,2024-12-04T08:33:08.835264,15.04956343,.0001733,53.1597,312.5180,95.9212,264.1976,0,U,58783,999,5035,.1029E-2,.14495E-3,0
