STARLINK-31176          
1 58745U 24005T   24339.33704050 -.00001598  00000+0 -10322-3 0  9998
2 58745  43.0044 202.9732 0001219 280.0182  80.0522 15.02544767 51212
STARLINK-31181          
1 58746U 24005U   24339.49903556  .00000212  00000+0  17930-4 0  9991
2 58746  43.0010 148.8726 0000990 255.6710 104.4031 15.25897621 51870
STARLINK-31183          
1 58747U 24005V   24339.06446548  .00001166  00000+0  10136-3 0  9997
2 58747  43.0025 204.3695 0001201 267.1836  92.8869 15.02536311 51233
STARLINK-31165          
1 58748U 24005W   24339.33370299  .00001572  00000+0  13139-3 0  9994
2 58748  43.0031 202.9480 0001622 267.0547  93.0110 15.02539586 51174
STARLINK-31160          
1 58749U 24005X   24339.32370478  .00003064  00000+0  24170-3 0  9998
2 58749  43.0036 202.8037 0001378 269.1326  90.9359 15.02551279 51177
STARLINK-31179          
1 58750U 24005Y   24339.32707066  .00027592  00000+0  20489-2 0  9997
2 58750  42.9955 202.8963 0002908 278.1164  81.9349 15.02545940 51172
EINSTEIN PROBE          
1 58753U 24007A   24339.19299363  .00007858  00000+0  65223-3 0  9992
2 58753  28.9975 244.0892 0010438 112.3995 247.7708 14.97112160 49410
NANOFF B                
1 58755U 23185S   24339.60630781  .00009791  00000+0  67010-3 0  9993
2 58755  97.5990  43.7349 0014919  64.4796 295.7972 15.06210303 49455
TIANXING-1 02           
1 58756U 24008A   24338.72123623  .00080331  00000+0  61888-3 0  9999
2 58756  95.0953 327.1113 0014687 167.7825 192.3803 15.71596268 50768
YUNYAO-1 18             
1 58758U 24009A   24339.59372580  .00023252  00000+0  12316-2 0  9996
2 58758  49.9975   8.6839 0007765 194.5356 165.5373 15.15230390 49855
YUNYAO-1 19             
1 58759U 24009B   24339.57609790  .00024125  00000+0  12809-2 0  9998
2 58759  49.9907   9.0800 0008703 204.2156 155.8388 15.15118301 49859
YUNYAO-1 20             
1 58760U 24009C   24339.55360285  .00025346  00000+0  13451-2 0  9991
2 58760  49.9835   8.0785 0007426 216.0675 143.9776 15.15116344 49865
STARLINK-31127          
1 58765U 24011A   24339.41965016  .00003312  00000+0  25060-3 0  9996
2 58765  53.1606 312.9122 0001743 109.2258 250.8921 15.04934176 50356
STARLINK-31114          
1 58766U 24011B   24339.30281141  .00008285  00000+0  59724-3 0  9993
2 58766  53.1611 312.9080 0001630  92.5892 267.5285 15.04938264 50348
STARLINK-31140          
1 58767U 24011C   24339.41643233  .00002495  00000+0  19344-3 0  9991
2 58767  53.1606 312.8924 0001454 100.4080 259.7073 15.04953306 50354
STARLINK-31145          
1 58768U 24011D   24339.21398230  .00001865  00000+0  14962-3 0  9995
2 58768  53.1621 313.7652 0001689  84.3210 275.7972 15.04925243 50327
STARLINK-31146          
1 58769U 24011E   24339.40891686  .00002855  00000+0  21865-3 0  9990
2 58769  53.1608 312.8454 0001595  94.6647 265.4525 15.04936544 50356
STARLINK-31143          
1 58770U 24011F   24339.33927154  .00019002  00000+0  13411-2 0  9993
2 58770  53.1613 313.1266 0001420  90.2645 269.8508 15.04984294 50349
STARLINK-31135          
1 58771U 24011G   24339.40247013 -.00001990  00000+0 -11957-3 0  9994
2 58771  53.1610 312.8059 0001373 104.4266 255.6876 15.04951500 50353
STARLINK-31136          
1 58772U 24011H   24339.20003109 -.00000339  00000+0 -42885-5 0  9991
2 58772  53.1606 313.6824 0001298  89.2091 270.9047 15.04933209 50323
STARLINK-31073          
1 58773U 24011J   24339.32963148  .00003060  00000+0  23309-3 0  9993
2 58773  53.1596 313.0681 0001591  88.4917 271.6255 15.04922224 50347
STARLINK-31122          
1 58774U 24011K   24339.45924951  .00007546  00000+0  54574-3 0  9998
2 58774  53.1610 312.4513 0001476  97.6963 262.4194 15.04940724 50364
STARLINK-31123          
1 58775U 24011L   24339.32319274  .00002159  00000+0  17014-3 0  9994
2 58775  53.1628 313.0229 0001798  85.1071 275.0124 15.04934874 50344
STARLINK-31117          
1 58776U 24011M   24339.31997786  .00005941  00000+0  43417-3 0  9992
2 58776  53.1598 313.0048 0001377  93.3034 266.8114 15.04910077 50349
STARLINK-31132          
1 58777U 24011N   24339.51134154  .00001455  00000+0  61248-4 0  9996
2 58777  53.1603 261.0231 0001406  83.3333 276.7828 15.30191441 51109
STARLINK-31120          
1 58778U 24011P   24339.37566375  .00012036  00000+0  85786-3 0  9994
2 58778  53.1604 312.6416 0001363  95.6166 264.4979 15.04961972 50353
STARLINK-31142          
1 58779U 24011Q   24339.24713020  .00001628  00000+0  13308-3 0  9998
2 58779  53.1626 313.2587 0001638  82.5605 277.5570 15.04924674 50330
STARLINK-31099          
1 58781U 24011S   24339.23318523 -.00000135  00000+0  99335-5 0  9998
2 58781  53.1621 313.1729 0001606  89.4268 270.6906 15.04921565 50334
STARLINK-31060          
1 58782U 24011T   24339.58334491  .00119551  00000+0  18959-2 0  9991
2 58782  53.1568 254.1976 0014089 125.4447 314.4814 15.52413597  5892
STARLINK-31047          
1 58783U 24011U   24339.35635226  .00014495  00000+0  10290-2 0  9998
2 58783  53.1597 312.5180 0001733  95.9212 264.1976 15.04956343 50353
